86P/Wild,e,15.4757,72.3767,179.3017,3.604360,0.1440329,0.37264802,260.4364,03/18.0/2020,2000,g 11.0,6.0
# From MPC105241
87P/Bus,e,2.6023,181.8619,24.9260,3.437794,0.1546266,0.38918782,351.9224,03/18.0/2020,2000,g  7.2,10.0
# From MPEC 2019-JE2
88P/Howell,e,4.3838,56.6855,235.9165,3.105327,0.1801121,0.56426008,325.3048,03/18.0/2020,2000,g 11.0,6.0
# From MPC100283
89P/Russell,e,12.0715,41.4208,250.2524,3.753929,0.1355111,0.40867001,161.0536,03/18.0/2020,2000,g 11.5,6.0
# From MPC107051
90P/Gehrels,e,9.6395,13.2179,29.1312,6.056495,0.0661260,0.50951492,66.3372,03/18.0/2020,2000,g  8.5,6.0
# From MPC105241
91P/Russell,e,14.0916,247.8285,354.7718,3.890575,0.1284350,0.33058998,329.6531,03/18.0/2020,2000,g  7.5,6.0
# From MPEC 2014-J58
92P/Sanguin,e,19.4735,181.3948,163.7078,5.346011,0.0797369,0.66031405,146.9253,03/18.0/2020,2000,g 12.0,6.0
# From NK 2707
93P/Lovas,e,12.2008,339.6226,74.8811,4.385145,0.1073317,0.61202060,119.4810,03/18.0/2020,2000,g  9.0,4.0
# From MPEC 2013-O31
94P/Russell,e,6.1878,70.8601,92.5233,3.506978,0.1500737,0.36471400,185.8904,03/18.0/2020,2000,g  9.0,4.0
# From MPC 75717
95P/Chiron,e,6.9411,209.2371,339.8140,13.68243,0.0194742,0.37911437,171.3944,03/18.0/2020,2000,g  6.5,2.0
# From MPEC 2017-T14
96P/Machholz,e,58.4795,94.2919,14.6224,3.028167,0.1870399,0.96115872,163.2450,03/18.0/2020,2000,g  9.0,4.0
# From MPC 77020
97P/Metcalf-Brewington,e,17.8650,184.4509,229.0975,4.787914,0.0940772,0.46127789,294.3342,03/18.0/2020,2000,g  5.5,6.0
# From MPEC 2013-H38
98P/Takamizawa,e,10.5613,114.7107,157.9069,3.799193,0.1330966,0.56219944,321.0138,03/18.0/2020,2000,g  9.0,8.0
# From MPC 75718
99P/Kowal,e,4.3378,28.1301,174.8901,6.115087,0.0651779,0.23049414,310.7744,03/18.0/2020,2000,g  4.5,6.0
# From MPEC 2013-O31
100P/Hartley,e,25.5750,37.7201,182.0010,3.431431,0.1550569,0.41272854,224.2153,03/18.0/2020,2000,g  9.0,4.0
# From MPC115887
101P/Chernykh,e,5.0528,116.2316,277.6948,5.797351,0.0706089,0.59552048,4.6236,03/18.0/2020,2000,g 12.0,4.8
# From MPC 86232
102P/Shoemaker,e,25.8721,339.3964,20.5411,3.815602,0.1322390,0.45769735,318.9520,03/18.0/2020,2000,g  6.5,8.0
# From MPEC 2018-HA5
103P/Hartley,e,13.5920,219.7275,181.3029,3.476839,0.1520292,0.69283785,161.6448,03/18.0/2020,2000,g  8.5,8.0
# From MPC100283
104P/Kowal,e,5.7919,209.7856,225.0122,3.201280,0.1720753,0.67112771,246.2569,03/18.0/2020,2000,g 16.0,4.0
# From MPC109147
105P/Singer Brewster,e,9.1742,192.4200,46.4559,3.466143,0.1527336,0.41000908,89.4821,03/18.0/2020,2000,g 11.5,6.0
# From MPC 92276
106P/Schuster,e,19.5875,49.0911,353.5590,3.763170,0.1350123,0.59480534,290.0015,03/18.0/2020,2000,g 14.0,4.8
# From MPEC 2015-M77
107P/Wilson-Harrington,e,2.7983,266.8176,95.3726,2.626060,0.2316045,0.63110296,153.8735,03/18.0/2020,2000,g  9.0,4.0
# From MPC 89313
108P/Ciffreo,e,11.4899,50.6532,354.1712,3.741419,0.1361914,0.55805373,286.4122,03/18.0/2020,2000,g  8.0,12.0
# From  105, 420
109P/Swift-Tuttle,e,113.8789,139.1249,152.8792,26.10286,0.0073905,0.96323877,73.6926,03/18.0/2020,2000,g  4.0,6.0
# From MPC 92276
110P/Hartley,e,11.7075,287.5343,167.4243,3.600957,0.1442372,0.31772761,276.4307,03/18.0/2020,2000,g  1.0,12.0
# From MPC 75718
111P/Helin-Roman-Crockett,e,4.2275,89.7631,1.2304,4.143865,0.1168411,0.10540711,306.6852,03/18.0/2020,2000,g  5.0,8.0
# From MPC118097
112P/Urata-Niijima,e,24.1907,31.8496,21.5006,3.526225,0.1488466,0.58975344,5.8100,03/18.0/2020,2000,g 14.0,6.0
# From MPEC 2015-E14
113P/Spitaler,e,5.2322,307.1103,115.5165,3.687549,0.1391866,0.43346971,249.1610,03/18.0/2020,2000,g 13.5,4.0
# From MPEC 2019-TG9
114P/Wiseman-Skiff,e,18.2723,271.0598,172.8120,3.547445,0.1475131,0.55477880,9.4287,03/18.0/2020,2000,g 11.5,6.0
# From MPC105241
115P/Maury,e,11.6741,176.0318,121.0259,4.275018,0.1115057,0.51888112,345.0791,03/18.0/2020,2000,g 10.5,6.0
# From MPC106348
116P/Wild,e,3.6046,20.9999,173.3974,3.488057,0.1512964,0.37103389,231.2597,03/18.0/2020,2000,g  2.5,10.0
# From MPEC 2015-S97
117P/Helin-Roman-Alu,e,8.7011,58.8607,222.6737,4.087775,0.1192542,0.25571563,259.7573,03/18.0/2020,2000,g  9.0,4.0
# From MPC 95735
118P/Shoemaker-Levy,e,9.0919,145.1364,309.0860,3.415471,0.1561450,0.45268188,208.7297,03/18.0/2020,2000,g 12.0,4.0
# From MPC 84628
119P/Parker-Hartley,e,7.5173,104.9502,321.5307,3.809310,0.1325668,0.41525548,247.1431,03/18.0/2020,2000,g  3.5,8.0
# From MPC 80901
120P/Mueller,e,8.4816,358.7214,36.3048,3.969487,0.1246242,0.37534634,308.3600,03/18.0/2020,2000,g 12.0,4.0
# From MPC100283
121P/Shoemaker-Holt,e,20.1643,94.1421,11.2261,4.587363,0.1003135,0.18468326,239.9598,03/18.0/2020,2000,g  6.5,8.0
# From MPC 75718
122P/de Vico,e,84.6141,79.5082,13.0255,17.63582,0.0133079,0.96230518,119.0515,03/18.0/2020,2000,g  7.5,5.2
# From MPC114608
123P/West-Hartley,e,15.3512,46.4901,103.1336,3.861385,0.1298941,0.44880358,52.8166,03/18.0/2020,2000,g  4.0,10.0
# From MPC118097
124P/Mrkos,e,31.5126,0.3709,183.8532,3.318106,0.1630680,0.50347372,353.4959,03/18.0/2020,2000,g 13.5,2.8
# From MPEC 2015-M77
125P/Spacewatch,e,9.9878,153.1677,87.2019,3.124666,0.1784427,0.51322632,101.3784,03/18.0/2020,2000,g  9.0,4.0
# From MPC 66205
126P/IRAS,e,45.8399,357.8404,356.4951,5.642575,0.0735340,0.69587849,271.4135,03/18.0/2020,2000,g  9.0,4.0
# From MPC 84321
127P/Holt-Olmstead,e,14.2988,13.6489,6.5622,3.449250,0.1538569,0.35979897,225.1370,03/18.0/2020,2000,g 11.0,6.0
# From MPC 89014
128P/Shoemaker-Holt,e,4.3655,214.2926,210.4156,4.494774,0.1034290,0.32032592,120.3289,03/18.0/2020,2000,g  8.5,4.0
# From MPEC 2019-TG9
129P/Shoemaker-Levy,e,3.4434,184.8928,308.3048,4.280239,0.1113017,0.08393263,249.3858,03/18.0/2020,2000,g 11.0,4.0
# From MPC 78188
130P/McNaught-Hughes,e,6.0644,70.2508,245.9474,3.383841,0.1583395,0.46121950,124.4468,03/18.0/2020,2000,g 10.0,6.0
# From MPC102101
131P/Mueller,e,7.3531,214.1821,179.0557,3.681845,0.1395102,0.34352400,58.4319,03/18.0/2020,2000,g 11.0,4.0
# From MPC 92985
132P/Helin-Roman-Alu,e,5.3791,174.1923,216.4054,3.880306,0.1289452,0.56574048,281.9728,03/18.0/2020,2000,g 11.0,6.0
# From MPC 94676
133P/Elst-Pizarro,e,1.3891,160.1305,131.6413,3.163135,0.1751973,0.15723095,95.2547,03/18.0/2020,2000,g 15.4,2.0
# From MPC 89012
134P/Kowal-Vavrova,e,4.3456,202.0839,18.8565,6.256278,0.0629840,0.58707029,134.0094,03/18.0/2020,2000,g 11.5,4.0
# From MPEC 2015-E14
135P/Shoemaker-Levy,e,6.0615,213.0559,22.2207,3.804596,0.1328132,0.29560288,260.4069,03/18.0/2020,2000,g  9.0,4.0
# From MPC101100
136P/Mueller,e,9.4229,137.4407,224.9019,4.196208,0.1146617,0.29192939,159.0424,03/18.0/2020,2000,g 11.0,4.0
# From MPEC 2019-VB6
137P/Shoemaker-Levy,e,4.8534,233.0729,141.0094,4.520529,0.1025463,0.57311996,47.2312,03/18.0/2020,2000,g 11.0,4.0
# From MPEC 2016-U66
138P/Shoemaker-Levy,e,10.0905,309.3297,95.5973,3.623799,0.1428755,0.53018345,45.7569,03/18.0/2020,2000,g 15.0,6.0
# From MPC108598
139P/Vaisala-Oterma,e,2.3333,242.2021,165.8341,4.525771,0.1023682,0.24621988,84.9008,03/18.0/2020,2000,g  9.5,4.0
# From MPEC 2015-E14
140P/Bowell-Skiff,e,3.8260,343.3302,172.9374,6.438084,0.0603350,0.69113255,101.6573,03/18.0/2020,2000,g 11.5,6.0
# From MPC105242
141P/Machholz,e,13.9540,241.8682,153.5454,3.056265,0.1844665,0.73584480,309.7580,03/18.0/2020,2000,g 12.0,12.0
# From MPC 95735
141P-H/Machholz,e,12.8431,246.0900,149.4500,3.008012,0.1889230,0.74682218,359.9270,08/24.0/2015,2000,g 18.5,4.0
# From MPC 71683
142P/Ge-Wang,e,12.2389,176.0767,174.0241,5.002308,0.0880944,0.49832851,322.8984,03/18.0/2020,2000,g  9.0,4.0
# From MPC 94676
143P/Kowal-Mrkos,e,4.6970,245.2819,320.5339,4.288039,0.1109982,0.41059230,75.6820,03/18.0/2020,2000,g  9.0,4.0
# From MPC104795
144P/Kushida,e,4.0305,244.3772,215.5467,3.806112,0.1327339,0.64064555,172.7755,03/18.0/2020,2000,g  8.5,8.0
# From MPC108598
145P/Shoemaker-Levy,e,11.2640,26.7928,10.2794,4.140908,0.1169663,0.54076543,108.6888,03/18.0/2020,2000,g 13.5,4.0
# From MPC100284
146P/Shoemaker-LINEAR,e,23.0794,53.4326,316.9069,4.033972,0.1216479,0.64634504,165.0631,03/18.0/2020,2000,g 15.0,4.0
# From MPC 75720
147P/Kushida-Muramatsu,e,2.3760,93.3411,351.5626,3.921157,0.1269354,0.25073846,189.6397,03/18.0/2020,2000,g 14.0,4.0
# From MPEC 2014-R70
148P/Anderson-LINEAR,e,3.6843,89.6856,6.5844,3.654955,0.1410526,0.54567164,244.4972,03/18.0/2020,2000,g  9.0,4.0
# From MPC 75720
149P/Mueller,e,29.7807,145.1826,43.9556,4.322730,0.1096647,0.39057825,43.2658,03/18.0/2020,2000,g  8.0,8.0
# From MPC 75720
150P/LONEOS,e,18.5079,272.4067,245.5890,3.880210,0.1289500,0.54651353,171.9086,03/18.0/2020,2000,g 13.5,4.0
# From MPEC 2015-Q71
151P/Helin,e,4.7259,143.1463,216.0611,5.765520,0.0711945,0.57273245,115.4948,03/18.0/2020,2000,g 10.0,6.0
# From MPC 79346
152P/Helin-Lawrence,e,9.8798,91.8700,163.7755,4.482187,0.1038650,0.30917370,290.8354,03/18.0/2020,2000,g 11.5,4.0
# From MPC 46101
153P/Ikeya-Zhang,e,27.7023,93.0420,35.2140,50.95262,0.0027099,0.98968139,0.0000,03/12.1127/2002,2000,g  9.0,4.0
# From MPC 87068
154P/Brewington,e,17.6277,343.0045,47.8630,4.804008,0.0936049,0.67498695,214.8885,03/18.0/2020,2000,g  2.5,12.0
# From MPC118098
155P/Shoemaker,e,6.3959,97.1977,14.6635,6.588457,0.0582812,0.72651695,7.2262,03/18.0/2020,2000,g 10.0,4.8
# From MPC105242
156P/Russell-LINEAR,e,17.2638,35.3976,0.3771,3.461986,0.1530087,0.61492969,322.5401,03/18.0/2020,2000,g 15.5,2.0
# From MPC104795
157P/Tritton,e,12.5801,288.1424,157.3748,3.424931,0.1554985,0.60805421,224.1521,03/18.0/2020,2000,g 10.0,4.0
# From MPEC 2016-K18
158P/Kowal-LINEAR,e,7.9104,135.9665,206.3892,4.849800,0.0922823,0.01491810,287.4793,03/18.0/2020,2000,g  9.0,4.0
# From MPEC 2019-VB6
159P/LONEOS,e,23.4608,55.0116,4.6537,5.857861,0.0695177,0.38144191,46.2885,03/18.0/2020,2000,g 10.0,4.0
# From MPEC 2019-TG9
160P/LINEAR,e,15.6158,333.3686,12.6503,3.771530,0.1345637,0.52608987,14.3599,03/18.0/2020,2000,g 15.5,2.0
# From MPC 75721
161P/Hartley-IRAS,e,95.7263,1.4402,46.9151,7.727351,0.0458837,0.83451128,247.7184,03/18.0/2020,2000,g  8.5,6.0
# From MPEC 2017-L52
